STARLINK-2581           
1 48412U 21038BM  23330.53592786 -.00008770  00000+0 -57096-3 0  9992
2 48412  53.0546  76.7131 0001311  69.1311 290.9818 15.06377272142280
YAOGAN-30 X             
1 48423U 21039A   23330.91944303  .00004774  00000+0  44742-3 0  9995
2 48423  34.9988 282.5353 0006423 238.2298 121.7782 14.93472610139470
YAOGAN-30 Y             
1 48424U 21039B   23330.89672221  .00004753  00000+0  44535-3 0  9997
2 48424  34.9970 282.2292 0005626 322.5941  37.4372 14.93490275139461
YAOGAN-30 Z             
1 48425U 21039C   23330.94132831  .00004467  00000+0  41866-3 0  9998
2 48425  34.9969 281.6448 0004697 256.3370 103.6812 14.93500447139483
TIANQI-12               
1 48426U 21039D   23330.95101500  .00006281  00000+0  54981-3 0  9997
2 48426  35.0047 267.3310 0004330 358.0880   1.9809 14.96100944139614
STARLINK-2461           
1 48428U 21040A   23330.27832597  .00015359  00000+0  10471-2 0  9994
2 48428  53.0541 332.4387 0001624  77.2520 282.8651 15.06422181140795
STARLINK-2749           
1 48429U 21040B   23330.91139411 -.00003064  00000+0 -18696-3 0  9991
2 48429  53.0536 299.6009 0001905  85.2022 274.9184 15.06385768141303
STARLINK-2729           
1 48430U 21040C   23330.94455267  .00011798  00000+0  80937-3 0  9994
2 48430  53.0544 299.4540 0001922  97.9272 262.1936 15.06410268141317
STARLINK-2700           
1 48431U 21040D   23330.29349446  .00019209  00000+0  13035-2 0  9993
2 48431  53.0534 297.3696 0001620  89.9189 270.1985 15.06440503141283
STARLINK-2680           
1 48432U 21040E   23330.27467957  .00011766  00000+0  80677-3 0  9997
2 48432  53.0542 292.8471 0001452  95.0199 265.0956 15.06433444141340
STARLINK-2699           
1 48433U 21040F   23330.28710687  .00020781  00000+0  14085-2 0  9996
2 48433  53.0538 297.6792 0001379  96.8342 263.2804 15.06436611141275
STARLINK-2692           
1 48434U 21040G   23330.91514170 -.00005834  00000+0 -37328-3 0  9996
2 48434  53.0536 300.0869 0001260  96.2586 263.8546 15.06380185141308
STARLINK-2633           
1 48435U 21040H   23330.32441746 -.00000012  00000+0  18070-4 0  9996
2 48435  53.0547 312.2417 0001672  98.8192 261.2986 15.06384049141070
STARLINK-2639           
1 48436U 21040J   23330.38016812  .00017409  00000+0  11841-2 0  9999
2 48436  53.0541 326.9808 0001355 100.3331 259.7811 15.06419476140872
STARLINK-2642           
1 48437U 21040K   23330.43083158  .00001322  00000+0  10764-3 0  9994
2 48437  53.0552 336.7538 0001583  89.7387 270.3784 15.06407037140742
STARLINK-2640           
1 48438U 21040L   23330.28322368  .00019435  00000+0  12620-2 0  9993
2 48438  53.0550 327.1357 0001935  92.4549 267.6662 15.08065066140867
STARLINK-2583           
1 48439U 21040M   23330.37276594  .00012705  00000+0  86966-3 0  9991
2 48439  53.0547 327.0080 0001602 100.7836 259.3334 15.06425601140877
STARLINK-2682           
1 48440U 21040N   23330.30273697  .00012392  00000+0  84886-3 0  9998
2 48440  53.0550 327.3254 0001433 100.7938 259.3212 15.06422012140861
STARLINK-2702           
1 48441U 21040P   23330.43173777  .00011774  00000+0  80740-3 0  9999
2 48441  53.0547 326.7440 0001625 112.7594 247.3567 15.06426527142162
STARLINK-2644           
1 48442U 21040Q   23330.95883984 -.00004573  00000+0 -28837-3 0  9995
2 48442  53.0548 324.3882 0001682  88.7869 271.3312 15.06388745140968
STARLINK-2663           
1 48443U 21040R   23330.95515697  .00000480  00000+0  51139-4 0  9992
2 48443  53.0549 324.4034 0001434  78.2190 281.8959 15.06397602140961
STARLINK-2645           
1 48444U 21040S   23330.28799275  .00008194  00000+0  56809-3 0  9993
2 48444  53.0549 327.3941 0001547  97.1861 262.9304 15.06417997140864
STARLINK-2634           
1 48445U 21040T   23330.41699459  .00005537  00000+0  39011-3 0  9996
2 48445  53.0544 326.8135 0001401 101.8179 258.2967 15.06422948140880
STARLINK-2247           
1 48446U 21040U   23330.41331391  .00029628  00000+0  19956-2 0  9997
2 48446  53.0535 326.8278 0001601  98.8839 261.2332 15.06474542140886
STARLINK-2269           
1 48447U 21040V   23330.40962781  .00012728  00000+0  87112-3 0  9993
2 48447  53.0539 326.8432 0001675  92.5848 267.5333 15.06429936140882
STARLINK-2632           
1 48448U 21040W   23330.37646444  .00011388  00000+0  78172-3 0  9992
2 48448  53.0545 327.0772 0001525 108.2970 251.8185 15.06421156140871
STARLINK-2655           
1 48449U 21040X   23330.40593889  .00004940  00000+0  35009-3 0  9999
2 48449  53.0549 326.8624 0001720 113.8515 246.2654 15.06423204140889
STARLINK-2660           
1 48450U 21040Y   23330.40501367 -.00001376  00000+0 -73507-4 0  9999
2 48450  53.0564 326.8973 0001410 125.0400 235.0722 15.06391939140880
STARLINK-2652           
1 48451U 21040Z   23330.26957331  .00005507  00000+0  38818-3 0  9993
2 48451  53.0549 327.5111 0001702 113.3012 246.8156 15.06410957140860
STARLINK-2703           
1 48452U 21040AA  23330.39856839  .00015267  00000+0  10407-2 0  9996
2 48452  53.0537 326.8675 0001530  82.0401 278.0761 15.06432680142169
STARLINK-2620           
1 48453U 21040AB  23330.39489226  .00014828  00000+0  10118-2 0  9990
2 48453  53.0543 326.9131 0001486  95.0193 265.0966 15.06415517140887
STARLINK-2654           
1 48454U 21040AC  23330.39120282  .00017972  00000+0  12216-2 0  9999
2 48454  53.0538 326.9314 0001486  92.1003 268.0156 15.06422320140887
STARLINK-2497           
1 48455U 21040AD  23330.32116770  .00005050  00000+0  35753-3 0  9996
2 48455  53.0554 327.2435 0001556  99.4222 260.6943 15.06417482141476
STARLINK-2508           
1 48456U 21040AE  23330.31748803  .00011274  00000+0  77419-3 0  9994
2 48456  53.0533 327.2578 0001561 101.8862 258.2302 15.06415684140862
STARLINK-2698           
1 48458U 21040AG  23330.39628243  .00011870  00000+0  81392-3 0  9996
2 48458  53.0538 331.9983 0001494  98.9825 261.1333 15.06421557141359
STARLINK-2579           
1 48459U 21040AH  23330.38894312  .00015120  00000+0  10312-2 0  9993
2 48459  53.0555 332.2973 0001334  89.9368 270.1774 15.06420460140818
STARLINK-2582           
1 48460U 21040AJ  23330.40732775  .00015573  00000+0  10612-2 0  9997
2 48460  53.0538 331.8538 0001521  86.3205 273.7957 15.06429928141318
STARLINK-2693           
1 48461U 21040AK  23330.42206348  .00020176  00000+0  13678-2 0  9992
2 48461  53.0546 331.7908 0001615  89.0544 271.0630 15.06447018140822
STARLINK-2683           
1 48462U 21040AL  23330.40506077  .00015044  00000+0  10261-2 0  9996
2 48462  53.0543 337.1526 0001266  97.4204 262.6929 15.06420666141349
STARLINK-2689           
1 48463U 21040AM  23330.34510525  .00015362  00000+0  10472-2 0  9990
2 48463  53.0539 337.1401 0001532  88.9184 271.1980 15.06425566142016
STARLINK-2686           
1 48464U 21040AN  23330.25758880  .00006194  00000+0  43440-3 0  9994
2 48464  53.0557 337.5337 0001694  99.1921 260.9260 15.06395044140721
STARLINK-2681           
1 48465U 21040AP  23330.40133142  .00019886  00000+0  13484-2 0  9996
2 48465  53.0546 336.8814 0001495  90.2804 269.8356 15.06447342142021
STARLINK-2687           
1 48466U 21040AQ  23330.32025134  .00010547  00000+0  72539-3 0  9991
2 48466  53.0543 337.2485 0001516  97.3796 262.7365 15.06425018142017
STARLINK-2659           
1 48467U 21040AR  23330.34605325  .00010983  00000+0  75469-3 0  9999
2 48467  53.0541 337.1341 0001390  88.1476 271.9672 15.06417344142015
STARLINK-2685           
1 48468U 21040AS  23330.32762407  .00013494  00000+0  92266-3 0  9997
2 48468  53.0540 337.2188 0001469  98.6891 261.4264 15.06416133142015
STARLINK-2661           
1 48469U 21040AT  23330.40871140  .00013088  00000+0  89541-3 0  9993
2 48469  53.0542 336.8548 0001492  91.1683 268.9477 15.06420701140759
STARLINK-2675           
1 48470U 21040AU  23330.40408295  .00015297  00000+0  10431-2 0  9997
2 48470  53.0546 336.8664 0001407  86.2596 273.8554 15.06418809140744
STARLINK-2684           
1 48471U 21040AV  23330.46400135  .00004133  00000+0  29618-3 0  9994
2 48471  53.0546 336.6004 0001396 106.5626 253.5516 15.06404210140753
STARLINK-2722           
1 48472U 21040AW  23330.24653984  .00018820  00000+0  12768-2 0  9998
2 48472  53.0550 337.5826 0001449  78.6087 281.5064 15.06463183140719
STARLINK-2658           
1 48473U 21040AX  23330.21704935  .00015337  00000+0  10453-2 0  9998
2 48473  53.0540 337.7133 0001583  83.3652 276.7517 15.06433759140717
STARLINK-2697           
1 48474U 21040AY  23330.25021520  .00013284  00000+0  90842-3 0  9995
2 48474  53.0544 337.5662 0001511  87.2697 272.8465 15.06423835140713
STARLINK-2619           
1 48475U 21040AZ  23330.28707701  .00015401  00000+0  10500-2 0  9996
2 48475  53.0541 337.3999 0001487 102.1862 257.9293 15.06420333140729
STARLINK-2723           
1 48476U 21040BA  23330.24284259  .00013226  00000+0  90437-3 0  9992
2 48476  53.0545 337.5940 0001450 108.7200 251.3947 15.06431380140717
STARLINK-2728           
1 48478U 21040BC  23330.42713399  .00006633  00000+0  46344-3 0  9998
2 48478  53.0552 336.7687 0001579  85.4149 274.7020 15.06425858140748
STARLINK-2755           
1 48479U 21040BD  23330.29076497  .00012460  00000+0  85352-3 0  9992
2 48479  53.0538 337.3844 0001497  87.1349 272.9811 15.06415170140727
STARLINK-2690           
1 48480U 21040BE  23330.43632361  .00025048  00000+0  16915-2 0  9992
2 48480  53.0539 346.7183 0001641 110.4127 249.7039 15.06465702140602
STARLINK-2706           
1 48481U 21040BF  23330.34516913  .00019064  00000+0  12933-2 0  9994
2 48481  53.0550 347.4183 0001801  79.4035 280.7157 15.06457202140583
STARLINK-2525           
1 48482U 21040BG  23330.37830553  .00016244  00000+0  11059-2 0  9992
2 48482  53.0540 346.9908 0001466  96.1166 263.9990 15.06434513140599
STARLINK-2531           
1 48483U 21040BH  23330.37461704  .00015204  00000+0  10369-2 0  9999
2 48483  53.0545 347.0076 0001445  81.5279 278.5874 15.06417329140592
